0 THORAD AGENA D DEB
1 04679U 70025BC  13282.68148157  .00000342  00000-0  48134-3 0  4713
2 04679 100.0703 186.7662 0018302 341.7387 081.8595 13.65114001157812
0 THORAD AGENA D DEB
1 04679U 70025BC  13287.17243027  .00000401  00000-0  55383-3 0  4736
2 04679 100.0706 191.4230 0018123 330.4362 192.2595 13.65117574158421
0 THORAD AGENA D DEB
1 04679U 70025BC  13289.22255419  .00000419  00000-0  57619-3 0  4746
2 04679 100.0705 193.5490 0018040 325.3291 187.3946 13.65120079158703
0 THORAD AGENA D DEB
1 04679U 70025BC  13291.34081328  .00000439  00000-0  60022-3 0  4753
2 04679 100.0703 195.7458 0017965 319.9869 157.4562 13.65121933158997
0 THORAD AGENA D DEB
1 04679U 70025BC  13293.67509846  .00000476  00000-0  64531-3 0  4762
2 04679 100.0702 198.1666 0017863 314.0609 109.2236 13.65124211159311
0 THORAD AGENA D DEB
1 04679U 70025BC  13295.72556858  .00000470  00000-0  63837-3 0  4778
2 04679 100.0702 200.2931 0017787 308.8259 106.2358 13.65126419159592
